{
  "type": "FeatureCollection",
  "features": [
    {
      "type": "Feature",
      "properties": {
        "norad_id": 66584,
        "name": "STARLINK-35939",
        "group": "last-30-days",
        "lat": 8.64538908614475,
        "lon": -79.26659828545228,
        "alt_km": 413.4472301064143,
        "timestamp": "2025-12-14T14:39:28.132110+00:00",
        "meta_object_name": "STARLINK-35939",
        "meta_object_id": "2025-268AD",
        "meta_epoch": "2025-12-13T17:50:36.078432",
        "meta_mean_motion": 15.50522655,
        "meta_eccentricity": 0.00026586,
        "meta_inclination": 43.0001,
        "meta_ra_of_asc_node": 115.1986,
        "meta_arg_of_pericenter": 262.3879,
        "meta_mean_anomaly": 97.6679,
        "meta_ephemeris_type": 0,
        "meta_classification_type": "U",
        "meta_norad_cat_id": 66584,
        "meta_element_set_no": 999,
        "meta_rev_at_epoch": 478,
        "meta_bstar": 0.002246489,
        "meta_mean_motion_dot": 0.00133458,
        "meta_mean_motion_ddot": 0,
        "tle_line1": "1 66584U 25268AD  25347.74347313  .00133458  00000+0  22465-2 0  9999",
        "tle_line2": "2 66584  43.0001 115.1986 0002658 262.3879  97.6679 15.50522655  4787"
      },
      "geometry": {
        "type": "Point",
        "coordinates": [
          -79.26659828545228,
          8.64538908614475
        ]
      }
    },
    {
      "type": "Feature",
      "properties": {
        "norad_id": 66585,
        "name": "STARLINK-35963",
        "group": "last-30-days",
        "lat": 7.341173799714901,
        "lon": -77.82708768964953,
        "alt_km": 413.57461398180476,
        "timestamp": "2025-12-14T14:39:28.132120+00:00",
        "meta_object_name": "STARLINK-35963",
        "meta_object_id": "2025-268AE",
        "meta_epoch": "2025-12-13T17:50:06.473472",
        "meta_mean_motion": 15.50525596,
        "meta_eccentricity": 0.00024966,
        "meta_inclination": 43,
        "meta_ra_of_asc_node": 115.1964,
        "meta_arg_of_pericenter": 263.661,
        "meta_mean_anomaly": 96.3965,
        "meta_ephemeris_type": 0,
        "meta_classification_type": "U",
        "meta_norad_cat_id": 66585,
        "meta_element_set_no": 999,
        "meta_rev_at_epoch": 478,
        "meta_bstar": 0.0022870387,
        "meta_mean_motion_dot": 0.00135929,
        "meta_mean_motion_ddot": 0,
        "tle_line1": "1 66585U 25268AE  25347.74313048  .00135929  00000+0  22870-2 0  9993",
        "tle_line2": "2 66585  43.0000 115.1964 0002496 263.6610  96.3965 15.50525596  4781"
      },
      "geometry": {
        "type": "Point",
        "coordinates": [
          -77.82708768964953,
          7.341173799714901
        ]
      }
    },
    {
      "type": "Feature",
      "properties": {
        "norad_id": 66586,
        "name": "TJS-21",
        "group": "last-30-days",
        "lat": 42.06031419973651,
        "lon": -44.924142988438064,
        "alt_km": 22656.156257271847,
        "timestamp": "2025-12-14T14:39:28.132135+00:00",
        "meta_object_name": "TJS-21",
        "meta_object_id": "2025-269A",
        "meta_epoch": "2025-12-10T17:31:22.184832",
        "meta_mean_motion": 2.00567425,
        "meta_eccentricity": 0.6805766,
        "meta_inclination": 63.269,
        "meta_ra_of_asc_node": 162.5612,
        "meta_arg_of_pericenter": 269.7806,
        "meta_mean_anomaly": 18.6565,
        "meta_ephemeris_type": 0,
        "meta_classification_type": "U",
        "meta_norad_cat_id": 66586,
        "meta_element_set_no": 999,
        "meta_rev_at_epoch": 39,
        "meta_bstar": -0.044965385,
        "meta_mean_motion_dot": 1.083e-05,
        "meta_mean_motion_ddot": 0,
        "tle_line1": "1 66586U 25269A   25344.73011788  .00001083  00000+0 -44965-1 0  9999",
        "tle_line2": "2 66586  63.2690 162.5612 6805766 269.7806  18.6565  2.00567425   392"
      },
      "geometry": {
        "type": "Point",
        "coordinates": [
          -44.924142988438064,
          42.06031419973651
        ]
      }
    },
    {
      "type": "Feature",
      "properties": {
        "norad_id": 66587,
        "name": "CZ-3B R/B",
        "group": "last-30-days",
        "lat": 50.40288532839201,
        "lon": -115.04279669206835,
        "alt_km": 25221.899032814115,
        "timestamp": "2025-12-14T14:39:28.132152+00:00",
        "meta_object_name": "CZ-3B R/B",
        "meta_object_id": "2025-269B",
        "meta_epoch": "2025-12-12T18:47:24.789120",
        "meta_mean_motion": 2.03336189,
        "meta_eccentricity": 0.7518951,
        "meta_inclination": 51.347,
        "meta_ra_of_asc_node": 169.6347,
        "meta_arg_of_pericenter": 228.7177,
        "meta_mean_anomaly": 37.1847,
        "meta_ephemeris_type": 0,
        "meta_classification_type": "U",
        "meta_norad_cat_id": 66587,
        "meta_element_set_no": 999,
        "meta_rev_at_epoch": 45,
        "meta_bstar": 0.00096662605,
        "meta_mean_motion_dot": 0.00067576,
        "meta_mean_motion_ddot": 1.09445e-06,
        "tle_line1": "1 66587U 25269B   25346.78292580  .00067576  10944-5  96663-3 0  9994",
        "tle_line2": "2 66587  51.3470 169.6347 7518951 228.7177  37.1847  2.03336189   454"
      },
      "geometry": {
        "type": "Point",
        "coordinates": [
          -115.04279669206835,
          50.40288532839201
        ]
      }
    },
    {
      "type": "Feature",
      "properties": {
        "norad_id": 66588,
        "name": "STARLINK-36076",
        "group": "last-30-days",
        "lat": -24.85024147951239,
        "lon": 152.19279170409806,
        "alt_km": 446.1346868292867,
        "timestamp": "2025-12-14T14:39:28.132164+00:00",
        "meta_object_name": "STARLINK-36076",
        "meta_object_id": "2025-270A",
        "meta_epoch": "2025-12-13T20:00:03.000384",
        "meta_mean_motion": 15.40654137,
        "meta_eccentricity": 0.00014469,
        "meta_inclination": 42.9994,
        "meta_ra_of_asc_node": 186.4757,
        "meta_arg_of_pericenter": 242.4379,
        "meta_mean_anomaly": 82.7836,
        "meta_ephemeris_type": 0,
        "meta_classification_type": "U",
        "meta_norad_cat_id": 66588,
        "meta_element_set_no": 999,
        "meta_rev_at_epoch": 457,
        "meta_bstar": 0.00065381263,
        "meta_mean_motion_dot": 0.00027063,
        "meta_mean_motion_ddot": 0,
        "tle_line1": "1 66588U 25270A   25347.83336806  .00027063  00000+0  65381-3 0  9990",
        "tle_line2": "2 66588  42.9994 186.4757 0001446 242.4379  82.7836 15.40654137  4572"
      },
      "geometry": {
        "type": "Point",
        "coordinates": [
          152.19279170409806,
          -24.85024147951239
        ]
      }
    },
    {
      "type": "Feature",
      "properties": {
        "norad_id": 66589,
        "name": "STARLINK-35447",
        "group": "last-30-days",
        "lat": 28.162777900894007,
        "lon": -143.13717103276696,
        "alt_km": 420.0502712747639,
        "timestamp": "2025-12-14T14:39:28.132175+00:00",
        "meta_object_name": "STARLINK-35447",
        "meta_object_id": "2025-270B",
        "meta_epoch": "2025-12-13T20:00:03.000384",
        "meta_mean_motion": 15.50854573,
        "meta_eccentricity": 0.00015527,
        "meta_inclination": 42.9993,
        "meta_ra_of_asc_node": 186.3348,
        "meta_arg_of_pericenter": 268.7551,
        "meta_mean_anomaly": 114.3381,
        "meta_ephemeris_type": 0,
        "meta_classification_type": "U",
        "meta_norad_cat_id": 66589,
        "meta_element_set_no": 999,
        "meta_rev_at_epoch": 468,
        "meta_bstar": -0.036852915,
        "meta_mean_motion_dot": -0.019558,
        "meta_mean_motion_ddot": 0,
        "tle_line1": "1 66589U 25270B   25347.83336806 -.01955800  00000+0 -36853-1 0  9993",
        "tle_line2": "2 66589  42.9993 186.3348 0001552 268.7551 114.3381 15.50854573  4684"
      },
      "geometry": {
        "type": "Point",
        "coordinates": [
          -143.13717103276696,
          28.162777900894007
        ]
      }
    },
    {
      "type": "Feature",
      "properties": {
        "norad_id": 66590,
        "name": "STARLINK-35429",
        "group": "last-30-days",
        "lat": 29.21778659726017,
        "lon": -141.32366314191262,
        "alt_km": 410.9410857785224,
        "timestamp": "2025-12-14T14:39:28.132185+00:00",
        "meta_object_name": "STARLINK-35429",
        "meta_object_id": "2025-270C",
        "meta_epoch": "2025-12-13T20:00:03.000384",
        "meta_mean_motion": 15.50522924,
        "meta_eccentricity": 0.0001592,
        "meta_inclination": 42.9995,
        "meta_ra_of_asc_node": 186.34,
        "meta_arg_of_pericenter": 270.7513,
        "meta_mean_anomaly": 110.4648,
        "meta_ephemeris_type": 0,
        "meta_classification_type": "U",
        "meta_norad_cat_id": 66590,
        "meta_element_set_no": 999,
        "meta_rev_at_epoch": 468,
        "meta_bstar": 0.0011062402,
        "meta_mean_motion_dot": 0.00064967,
        "meta_mean_motion_ddot": 0,
        "tle_line1": "1 66590U 25270C   25347.83336806  .00064967  00000+0  11062-2 0  9993",
        "tle_line2": "2 66590  42.9995 186.3400 0001592 270.7513 110.4648 15.50522924  4687"
      },
      "geometry": {
        "type": "Point",
        "coordinates": [
          -141.32366314191262,
          29.21778659726017
        ]
      }
    }
  ]
}